{
  "norad_id": 62771,
  "name": "STARLINK-33598",
  "history": [
    {
      "epoch": "2026-03-28T16:36:05.964480Z",
      "apogee_km": 475.84375001181434,
      "perigee_km": 474.5238004305065,
      "latitude_deg": 4.003455006994975e-06,
      "longitude_deg": 158.826909320121,
      "height_km": 475.79465373386506,
      "semi_major_axis_km": 6853.32077522116,
      "eccentricity": 9.63e-05,
      "inclination_deg": 53.1574,
      "raan_deg": 233.9603,
      "arg_perigee_deg": 64.1782,
      "mean_anomaly_deg": 295.9318,
      "mean_motion_rev_day": 15.30210481
    }
  ]
}